LUDI TANCE 1-01A (L-SA*)
1 51284U 22007A   26166.97104405  .00000547  00000+0  64899-4 0  9997
2 51284  97.8097 174.4083 0001581  91.7079 268.4318 14.88420719238297
LUDI TANCE 1-01B (L-SA*)
1 51822U 22018A   26167.00465182  .00000500  00000+0  59747-4 0  9999
2 51822  97.8103 174.4378 0001608  92.4675 267.6726 14.88417160233532
2022-023F               
1 51951U 22023F   26166.89278885  .00011409  00000+0  45568-3 0  9991
2 51951  63.4458 277.8803 0129836 342.4380  17.2262 15.18060489237511
MERIDIAN 10             
1 52145U 22030A   26166.47476583  .00000186  00000+0  00000+0 0  9992
2 52145  62.6757 140.9887 6783466 272.8536  17.6501  2.00613546 30990
OMNI-L1                 
1 52157U 22033A   26166.76171015  .00001700  00000+0  21699-3 0  9996
2 52157  97.8397 245.9667 0003854 294.6352  65.4460 14.82744557227244
ENMAP                   
1 52159U 22033C   26166.94439421  .00000493  00000+0  80815-4 0  9990
2 52159  97.9800 249.2116 0001387  84.7915 275.3453 14.74987505226475
ARCSAT-1                
1 52161U 22033E   26166.96618265  .00009706  00000+0  15388-3 0  9998
2 52161  97.2757 259.2207 0004837 183.0330 177.0895 15.53591826235519
GLOBAL-18               
1 52196U 22034B   26166.57435704  .00018622  00000+0  38039-3 0  9994
2 52196  52.9820 264.3485 0003083 272.7602  87.3050 15.46228616236716
GAOFEN-3 03             
1 52200U 22035A   26166.98086912 -.00000007  00000+0  10965-4 0  9997
2 52200  98.4054 175.5784 0001277 101.7839 258.3494 14.42214869220677
DAQI-1                  
1 52257U 22039A   26166.97843612  .00000089  00000+0  29315-4 0  9998
2 52257  98.1486 105.8556 0002247 260.5454  99.5491 14.57676460221761
BRO-6                   
1 52422U 22047AE  26166.97607873  .00032404  00000+0  56839-3 0  9994
2 52422  97.3405 258.0076 0005148  83.0243 277.1594 15.50481560230961
JILIN-1 GAOFEN 3D27     
1 52444U 22048B   26166.94814690  .00103823  00000+0  69171-3 0  9990
2 52444  97.5717 280.7706 0001070  30.5567 329.5759 15.75082012229285
JILIN-1 GAOFEN 3D28     
1 52445U 22048C   26166.94984033  .00122021  00000+0  71087-3 0  9990
2 52445  97.5655 280.9173 0000602 192.7325 167.3926 15.78093068229336
VIGORIDE-3              
1 52760U 22057AE  26166.97184213  .00004546  00000+0  17292-3 0  9994
2 52760  97.6606 306.9134 0009536 124.1224 236.0920 15.27268947224978
ION SCV-006             
1 52761U 22057AF  26166.93471694  .00010446  00000+0  22021-3 0  9995
2 52761  97.6099 315.4962 0018332 117.9179 242.3928 15.45262317225921
SHERPA-AC1              
1 52763U 22057AH  26166.95961372  .00006288  00000+0  18024-3 0  9993
2 52763  97.6685 316.1342 0008941  97.2056 263.0204 15.36248745225514
OMNI-L2                 
1 52771U 22057AR  26166.90669364  .00001209  00000+0  16082-3 0  9993
2 52771  97.4716 229.3511 0005890 341.5074  18.5925 14.81367893220203
STEP CUBE LAB-II        
1 52897U 22065D   26166.97347491  .00000752  00000+0  15502-3 0  9990
2 52897  98.2219 310.8785 0009398  36.0866 324.0969 14.63302367211321
RANDEV                  
1 52898U 22065E   26166.90651120  .00000861  00000+0  17462-3 0  9999
2 52898  98.2204 311.1625 0008774  36.8221 323.3582 14.63689988211064
SNUGLITE-II             
1 52899U 22065F   26166.93775629  .00000804  00000+0  16135-3 0  9997
2 52899  98.2200 311.7704 0008082  36.6425 323.5329 14.64345731210810
MIMAN                   
1 52900U 22065G   26166.88468805  .00000417  00000+0  92969-4 0  9999
2 52900  98.2258 309.3735 0008304  38.6396 321.5398 14.61842490210252
STARLINK-4362           
1 53043U 22077A   26166.93645720 -.00000322  00000+0 -18352-4 0  9991
2 53043  97.3569 345.9408 0001189  72.9208 287.2150 15.05654961215696
LARES-2                 
1 53105U 22080A   26164.25617662 -.00000017  00000+0  00000+0 0  9997
2 53105  70.1627 306.6773 0005398 335.8266  24.1972  6.38965105 91412
GREENCUBE (IO-117)      
1 53109U 22080E   26164.29338770 -.00000003  00000+0  00000+0 0  9990
2 53109  70.1444 299.5995 0008910 290.4576  69.5127  6.42583230 91811
STARLINK-4410           
1 53204U 22084R   26167.00003472  .00097004  00000+0  32826-2 0  9990
2 53204  97.6006 228.0606 0001707  73.3047  87.2490 15.30208057  5834
COSMOS 2558             
1 53323U 22089A   26166.49450463  .00096113  00000+0  64722-3 0  9996
2 53323  97.2262 270.4898 0000991 231.2409 128.8767 15.74858788217565
TECMS                   
1 53346U 22090A   26166.97510487  .00003203  00000+0  14580-3 0  9994
2 53346  97.3140 235.1182 0003319 178.9701 181.1542 15.21400142214625
