OBJECT_NAME,OBJECT_ID,EPOCH,MEAN_MOTION,ECCENTRICITY,INCLINATION,RA_OF_ASC_NODE,ARG_OF_PERICENTER,MEAN_ANOMALY,EPHEMERIS_TYPE,CLASSIFICATION_TYPE,NORAD_CAT_ID,ELEMENT_SET_NO,REV_AT_EPOCH,BSTAR,MEAN_MOTION_DOT,MEAN_MOTION_DDOT
LUDI TANCE 1-01A (L-SAR 01A),2022-007A,2026-06-15T23:18:18.205920,14.88420719,.00015811,97.8097,174.4083,91.7079,268.4318,0,U,51284,999,23829,.6489944E-4,.547E-5,0
LUDI TANCE 1-01B (L-SAR 01B),2022-018A,2026-06-16T00:06:41.917248,14.88417160,.00016086,97.8103,174.4378,92.4675,267.6726,0,U,51822,999,23353,.59747457E-4,.5E-5,0
2022-023F,2022-023F,2026-06-15T21:25:36.956640,15.18060489,.01298366,63.4458,277.8803,342.4380,17.2262,0,U,51951,999,23751,.4556786E-3,.11409E-3,0
MERIDIAN 10,2022-030A,2026-06-15T11:23:39.767712,2.00613546,.67834665,62.6757,140.9887,272.8536,17.6501,0,U,52145,999,3099,0,.186E-5,0
OMNI-L1,2022-033A,2026-06-15T18:16:51.756960,14.82744557,.00038546,97.8397,245.9667,294.6352,65.4460,0,U,52157,999,22724,.21698667E-3,.17E-4,0
ENMAP,2022-033C,2026-06-15T22:39:55.659744,14.74987505,.00013878,97.9800,249.2116,84.7915,275.3453,0,U,52159,999,22647,.80814816E-4,.493E-5,0
ARCSAT-1,2022-033E,2026-06-15T23:11:18.180960,15.53591826,.00048378,97.2757,259.2207,183.0330,177.0895,0,U,52161,999,23551,.15387592E-3,.9706E-4,0
GLOBAL-18,2022-034B,2026-06-15T13:47:04.448256,15.46228616,.00030837,52.9820,264.3485,272.7602,87.3050,0,U,52196,999,23671,.38039029E-3,.18622E-3,0
GAOFEN-3 03,2022-035A,2026-06-15T23:32:27.091968,14.42214869,.00012774,98.4054,175.5784,101.7839,258.3494,0,U,52200,999,22067,.10965163E-4,-.7E-7,0
DAQI-1,2022-039A,2026-06-15T23:28:56.880768,14.57676460,.00022471,98.1486,105.8556,260.5454,99.5491,0,U,52257,999,22176,.29314535E-4,.89E-6,0
BRO-6,2022-047AE,2026-06-15T23:25:33.202272,15.50481560,.00051486,97.3405,258.0076,83.0243,277.1594,0,U,52422,999,23096,.56838817E-3,.32404E-3,0
JILIN-1 GAOFEN 3D27,2022-048B,2026-06-15T22:45:19.892160,15.75082012,.000107,97.5717,280.7706,30.5567,329.5759,0,U,52444,999,22928,.69170745E-3,.103823E-2,0
JILIN-1 GAOFEN 3D28,2022-048C,2026-06-15T22:47:46.204512,15.78093068,.00006028,97.5655,280.9173,192.7325,167.3926,0,U,52445,999,22933,.71087106E-3,.122021E-2,0
VIGORIDE-3,2022-057AE,2026-06-15T23:19:27.160032,15.27268947,.00095361,97.6606,306.9134,124.1224,236.0920,0,U,52760,999,22497,.17291724E-3,.4546E-4,0
ION SCV-006,2022-057AF,2026-06-15T22:25:59.543616,15.45262317,.00183322,97.6099,315.4962,117.9179,242.3928,0,U,52761,999,22592,.22021473E-3,.10446E-3,0
SHERPA-AC1,2022-057AH,2026-06-15T23:01:50.625408,15.36248745,.00089415,97.6685,316.1342,97.2056,263.0204,0,U,52763,999,22551,.18024217E-3,.6288E-4,0
OMNI-L2,2022-057AR,2026-06-15T21:45:38.330496,14.81367893,.00058906,97.4716,229.3511,341.5074,18.5925,0,U,52771,999,22020,.16082058E-3,.1209E-4,0
STEP CUBE LAB-II,2022-065D,2026-06-15T23:21:48.232224,14.63302367,.00093986,98.2219,310.8785,36.0866,324.0969,0,U,52897,999,21132,.15501939E-3,.752E-5,0
RANDEV,2022-065E,2026-06-15T21:45:22.567680,14.63689988,.00087742,98.2204,311.1625,36.8221,323.3582,0,U,52898,999,21106,.17462029E-3,.861E-5,0
SNUGLITE-II,2022-065F,2026-06-15T22:30:22.143456,14.64345731,.00080825,98.2200,311.7704,36.6425,323.5329,0,U,52899,999,21081,.16135252E-3,.804E-5,0
MIMAN,2022-065G,2026-06-15T21:13:57.047520,14.61842490,.00083046,98.2258,309.3735,38.6396,321.5398,0,U,52900,999,21025,.9296886E-4,.417E-5,0
STARLINK-4362,2022-077A,2026-06-15T22:28:29.902080,15.05654961,.00011891,97.3569,345.9408,72.9208,287.2150,0,U,53043,999,21569,-.1835246E-4,-.322E-5,0
LARES-2,2022-080A,2026-06-13T06:08:53.659968,6.38965105,.0005398,70.1627,306.6773,335.8266,24.1972,0,U,53105,999,9141,0,-.17E-6,0
GREENCUBE (IO-117),2022-080E,2026-06-13T07:02:28.697280,6.42583230,.00089108,70.1444,299.5995,290.4576,69.5127,0,U,53109,999,9181,0,-.3E-7,0
STARLINK-4410,2022-084R,2026-06-16T00:00:02.999808,15.30208057,.0001707,97.6006,228.0606,73.3047,87.2490,0,U,53204,999,583,.32826339E-2,.97004E-3,0
COSMOS 2558,2022-089A,2026-06-15T11:52:05.200032,15.74858788,.0000991,97.2262,270.4898,231.2409,128.8767,0,U,53323,999,21756,.64722E-3,.96113E-3,0
TECMS,2022-090A,2026-06-15T23:24:09.060768,15.21400142,.00033199,97.3140,235.1182,178.9701,181.1542,0,U,53346,999,21462,.14579627E-3,.3203E-4,0
